[{"OBJECT_NAME":"SALSAT","OBJECT_ID":"2020-068K","EPOCH":"2026-03-09T22:26:21.804576","MEAN_MOTION":15.28191989,"ECCENTRICITY":0.00082652,"INCLINATION":97.8859,"RA_OF_ASC_NODE":66.0795,"ARG_OF_PERICENTER":295.8051,"MEAN_ANOMALY":64.2334,"EPHEMERIS_TYPE":0,"CLASSIFICATION_TYPE":"U","NORAD_CAT_ID":46495,"ELEMENT_SET_NO":999,"REV_AT_EPOCH":30019,"BSTAR":0.00040842582,"MEAN_MOTION_DOT":0.00011156,"MEAN_MOTION_DDOT":0},{"OBJECT_NAME":"STARLINK-33711","OBJECT_ID":"2025-065F","EPOCH":"2026-03-09T19:28:38.802144","MEAN_MOTION":15.27598715,"ECCENTRICITY":0.00022486,"INCLINATION":43.0051,"RA_OF_ASC_NODE":105.9596,"ARG_OF_PERICENTER":269.6404,"MEAN_ANOMALY":90.419,"EPHEMERIS_TYPE":0,"CLASSIFICATION_TYPE":"U","NORAD_CAT_ID":63404,"ELEMENT_SET_NO":999,"REV_AT_EPOCH":5286,"BSTAR":0.00076505092,"MEAN_MOTION_DOT":0.00020862,"MEAN_MOTION_DDOT":0}]
